{"type": "FeatureCollection", "features": [ {"type": "Feature", "properties": {"norad_id": 33799, "name": "COSMOS 2251 DEB", "group": "cosmos-2251-debris", "lat": -17.522860842015454, "lon": 56.42801756372483, "alt_km": 647.9066630237849, "timestamp": "2025-12-22T23:36:21.109096+00:00", "meta": {"OBJECT_NAME": "COSMOS 2251 DEB", "OBJECT_ID": "1993-036AQ", "EPOCH": "2025-12-22T10:46:25.690944", "MEAN_MOTION": 14.79744929, "ECCENTRICITY": 0.00224679, "INCLINATION": 74.0318, "RA_OF_ASC_NODE": 62.6676, "ARG_OF_PERICENTER": 129.9441, "MEAN_ANOMALY": 245.0155, "EPHEMERIS_TYPE": 0, "CLASSIFICATION_TYPE": "U", "NORAD_CAT_ID": 33799, "ELEMENT_SET_NO": 999, "REV_AT_EPOCH": 88955, "BSTAR": 0.0013396152, "MEAN_MOTION_DOT": 0.00010098, "MEAN_MOTION_DDOT": 0}, "tle": {"line1": "1 33799U 93036AQ  25356.44890846  .00010098  00000+0  13396-2 0  9997", "line2": "2 33799  74.0318  62.6676 0022467 129.9441 245.0155 14.79744929889553"}}, "geometry": {"type": "Point", "coordinates": [56.42801756372483, -17.522860842015454]}}, {"type": "Feature", "properties": {"norad_id": 33805, "name": "COSMOS 2251 DEB", "group": "cosmos-2251-debris", "lat": 30.931301288222727, "lon": -58.276383695198504, "alt_km": 694.3911370108617, "timestamp": "2025-12-22T23:36:21.109107+00:00", "meta": {"OBJECT_NAME": "COSMOS 2251 DEB", "OBJECT_ID": "1993-036AW", "EPOCH": "2025-12-22T11:55:45.839712", "MEAN_MOTION": 14.57876334, "ECCENTRICITY": 0.0059931, "INCLINATION": 74.0312, "RA_OF_ASC_NODE": 292.7687, "ARG_OF_PERICENTER": 118.9132, "MEAN_ANOMALY": 241.8063, "EPHEMERIS_TYPE": 0, "CLASSIFICATION_TYPE": "U", "NORAD_CAT_ID": 33805, "ELEMENT_SET_NO": 999, "REV_AT_EPOCH": 89369, "BSTAR": 0.00021641049, "MEAN_MOTION_DOT": 9.86e-06, "MEAN_MOTION_DDOT": 0}, "tle": {"line1": "1 33805U 93036AW  25356.49705833  .00000986  00000+0  21641-3 0  9999", "line2": "2 33805  74.0312 292.7687 0059931 118.9132 241.8063 14.57876334893698"}}, "geometry": {"type": "Point", "coordinates": [-58.276383695198504, 30.931301288222727]}}, {"type": "Feature", "properties": {"norad_id": 33811, "name": "COSMOS 2251 DEB", "group": "cosmos-2251-debris", "lat": -31.812819511212616, "lon": 111.77086833805437, "alt_km": 573.525104974422, "timestamp": "2025-12-22T23:36:21.109127+00:00", "meta": {"OBJECT_NAME": "COSMOS 2251 DEB", "OBJECT_ID": "1993-036BC", "EPOCH": "2025-12-22T05:38:23.917920", "MEAN_MOTION": 15.05528174, "ECCENTRICITY": 0.00309601, "INCLINATION": 73.8382, "RA_OF_ASC_NODE": 282.9593, "ARG_OF_PERICENTER": 1.9197, "MEAN_ANOMALY": 115.9138, "EPHEMERIS_TYPE": 0, "CLASSIFICATION_TYPE": "U", "NORAD_CAT_ID": 33811, "ELEMENT_SET_NO": 999, "REV_AT_EPOCH": 90161, "BSTAR": 0.001172792, "MEAN_MOTION_DOT": 0.00017062, "MEAN_MOTION_DDOT": 0}, "tle": {"line1": "1 33811U 93036BC  25356.23499905  .00017062  00000+0  11728-2 0  9995", "line2": "2 33811  73.8382 282.9593 0030960   1.9197 115.9138 15.05528174901615"}}, "geometry": {"type": "Point", "coordinates": [111.77086833805437, -31.812819511212616]}}, {"type": "Feature", "properties": {"norad_id": 33815, "name": "COSMOS 2251 DEB", "group": "cosmos-2251-debris", "lat": 68.3839042551747, "lon": -158.38819901960568, "alt_km": 497.56291089558727, "timestamp": "2025-12-22T23:36:21.109150+00:00", "meta": {"OBJECT_NAME": "COSMOS 2251 DEB", "OBJECT_ID": "1993-036BG", "EPOCH": "2025-12-21T21:05:29.445792", "MEAN_MOTION": 15.2031958, "ECCENTRICITY": 0.00022339, "INCLINATION": 73.9522, "RA_OF_ASC_NODE": 157.3523, "ARG_OF_PERICENTER": 317.4488, "MEAN_ANOMALY": 193.2224, "EPHEMERIS_TYPE": 0, "CLASSIFICATION_TYPE": "U", "NORAD_CAT_ID": 33815, "ELEMENT_SET_NO": 999, "REV_AT_EPOCH": 88509, "BSTAR": 0.0076381072, "MEAN_MOTION_DOT": 0.00170041, "MEAN_MOTION_DDOT": 0}, "tle": {"line1": "1 33815U 93036BG  25355.87881303  .00170041  00000+0  76381-2 0  9998", "line2": "2 33815  73.9522 157.3523 0002233 317.4488 193.2224 15.20319580885098"}}, "geometry": {"type": "Point", "coordinates": [-158.38819901960568, 68.3839042551747]}}, {"type": "Feature", "properties": {"norad_id": 33816, "name": "COSMOS 2251 DEB", "group": "cosmos-2251-debris", "lat": -73.83003236158287, "lon": -6.854491798061242, "alt_km": 1155.0757630753496, "timestamp": "2025-12-22T23:36:21.109172+00:00", "meta": {"OBJECT_NAME": "COSMOS 2251 DEB", "OBJECT_ID": "1993-036BH", "EPOCH": "2025-12-21T16:47:19.907808", "MEAN_MOTION": 13.81792785, "ECCENTRICITY": 0.02642613, "INCLINATION": 73.8952, "RA_OF_ASC_NODE": 90.2102, "ARG_OF_PERICENTER": 101.3706, "MEAN_ANOMALY": 261.7227, "EPHEMERIS_TYPE": 0, "CLASSIFICATION_TYPE": "U", "NORAD_CAT_ID": 33816, "ELEMENT_SET_NO": 999, "REV_AT_EPOCH": 84797, "BSTAR": 0.00029148726, "MEAN_MOTION_DOT": 3.85e-06, "MEAN_MOTION_DDOT": 0}, "tle": {"line1": "1 33816U 93036BH  25355.69953597  .00000385  00000+0  29149-3 0  9998", "line2": "2 33816  73.8952  90.2102 0264261 101.3706 261.7227 13.81792785847973"}}, "geometry": {"type": "Point", "coordinates": [-6.854491798061242, -73.83003236158287]}}, {"type": "Feature", "properties": {"norad_id": 33818, "name": "COSMOS 2251 DEB", "group": "cosmos-2251-debris", "lat": 73.16698859273981, "lon": -144.28904330327964, "alt_km": 506.5962152263619, "timestamp": "2025-12-22T23:36:21.109185+00:00", "meta": {"OBJECT_NAME": "COSMOS 2251 DEB", "OBJECT_ID": "1993-036BK", "EPOCH": "2025-12-22T04:58:01.208352", "MEAN_MOTION": 15.1321841, "ECCENTRICITY": 0.00248395, "INCLINATION": 74.0784, "RA_OF_ASC_NODE": 146.6634, "ARG_OF_PERICENTER": 131.173, "MEAN_ANOMALY": 44.5484, "EPHEMERIS_TYPE": 0, "CLASSIFICATION_TYPE": "U", "NORAD_CAT_ID": 33818, "ELEMENT_SET_NO": 999, "REV_AT_EPOCH": 90005, "BSTAR": 0.0029389608, "MEAN_MOTION_DOT": 0.00052953, "MEAN_MOTION_DDOT": 0}, "tle": {"line1": "1 33818U 93036BK  25356.20695843  .00052953  00000+0  29390-2 0  9990", "line2": "2 33818  74.0784 146.6634 0024839 131.1730  44.5484 15.13218410900056"}}, "geometry": {"type": "Point", "coordinates": [-144.28904330327964, 73.16698859273981]}}, {"type": "Feature", "properties": {"norad_id": 33819, "name": "COSMOS 2251 DEB", "group": "cosmos-2251-debris", "lat": 58.02399603519687, "lon": -15.699969491185538, "alt_km": 754.3217797847983, "timestamp": "2025-12-22T23:36:21.109196+00:00", "meta": {"OBJECT_NAME": "COSMOS 2251 DEB", "OBJECT_ID": "1993-036BL", "EPOCH": "2025-12-22T13:08:52.892160", "MEAN_MOTION": 14.32253651, "ECCENTRICITY": 0.00894562, "INCLINATION": 74.1775, "RA_OF_ASC_NODE": 192.1043, "ARG_OF_PERICENTER": 50.4723, "MEAN_ANOMALY": 340.8435, "EPHEMERIS_TYPE": 0, "CLASSIFICATION_TYPE": "U", "NORAD_CAT_ID": 33819, "ELEMENT_SET_NO": 999, "REV_AT_EPOCH": 87636, "BSTAR": 0.00047905739, "MEAN_MOTION_DOT": 1.326e-05, "MEAN_MOTION_DDOT": 0}, "tle": {"line1": "1 33819U 93036BL  25356.54783440  .00001326  00000+0  47906-3 0  9991", "line2": "2 33819  74.1775 192.1043 0089456  50.4723 340.8435 14.32253651876369"}}, "geometry": {"type": "Point", "coordinates": [-15.699969491185538, 58.02399603519687]}}, {"type": "Feature", "properties": {"norad_id": 33821, "name": "COSMOS 2251 DEB", "group": "cosmos-2251-debris", "lat": -4.814345552113755, "lon": 119.78917614835993, "alt_km": 522.654701281991, "timestamp": "2025-12-22T23:36:21.109207+00:00", "meta": {"OBJECT_NAME": "COSMOS 2251 DEB", "OBJECT_ID": "1993-036BN", "EPOCH": "2025-12-22T07:53:33.422784", "MEAN_MOTION": 15.25877738, "ECCENTRICITY": 0.00499071, "INCLINATION": 74.0302, "RA_OF_ASC_NODE": 122.556, "ARG_OF_PERICENTER": 152.8966, "MEAN_ANOMALY": 207.4858, "EPHEMERIS_TYPE": 0, "CLASSIFICATION_TYPE": "U", "NORAD_CAT_ID": 33821, "ELEMENT_SET_NO": 999, "REV_AT_EPOCH": 75147, "BSTAR": 0.0013349255, "MEAN_MOTION_DOT": 0.00035587, "MEAN_MOTION_DDOT": 0}, "tle": {"line1": "1 33821U 93036BN  25356.32885906  .00035587  00000+0  13349-2 0  9999", "line2": "2 33821  74.0302 122.5560 0049907 152.8966 207.4858 15.25877738751473"}}, "geometry": {"type": "Point", "coordinates": [119.78917614835993, -4.814345552113755]}}, {"type": "Feature", "properties": {"norad_id": 33822, "name": "COSMOS 2251 DEB", "group": "cosmos-2251-debris", "lat": -37.97294466475625, "lon": 162.7151350899009, "alt_km": 873.9909251788613, "timestamp": "2025-12-22T23:36:21.109218+00:00", "meta": {"OBJECT_NAME": "COSMOS 2251 DEB", "OBJECT_ID": "1993-036BP", "EPOCH": "2025-12-21T22:56:07.338336", "MEAN_MOTION": 14.13113625, "ECCENTRICITY": 0.0152823, "INCLINATION": 74.0677, "RA_OF_ASC_NODE": 177.4121, "ARG_OF_PERICENTER": 221.4815, "MEAN_ANOMALY": 269.8267, "EPHEMERIS_TYPE": 0, "CLASSIFICATION_TYPE": "U", "NORAD_CAT_ID": 33822, "ELEMENT_SET_NO": 999, "REV_AT_EPOCH": 86184, "BSTAR": 0.0013099656, "MEAN_MOTION_DOT": 2.711e-05, "MEAN_MOTION_DDOT": 0}, "tle": {"line1": "1 33822U 93036BP  25355.95564049  .00002711  00000+0  13100-2 0  9998", "line2": "2 33822  74.0677 177.4121 0152823 221.4815 269.8267 14.13113625861842"}}, "geometry": {"type": "Point", "coordinates": [162.7151350899009, -37.97294466475625]}}, {"type": "Feature", "properties": {"norad_id": 33823, "name": "COSMOS 2251 DEB", "group": "cosmos-2251-debris", "lat": -16.615504947164403, "lon": 126.40383872232871, "alt_km": 893.0207711919411, "timestamp": "2025-12-22T23:36:21.109229+00:00", "meta": {"OBJECT_NAME": "COSMOS 2251 DEB", "OBJECT_ID": "1993-036BQ", "EPOCH": "2025-12-22T08:20:25.259712", "MEAN_MOTION": 13.98973529, "ECCENTRICITY": 0.0209434, "INCLINATION": 73.8097, "RA_OF_ASC_NODE": 132.4917, "ARG_OF_PERICENTER": 256.1122, "MEAN_ANOMALY": 122.0936, "EPHEMERIS_TYPE": 0, "CLASSIFICATION_TYPE": "U", "NORAD_CAT_ID": 33823, "ELEMENT_SET_NO": 999, "REV_AT_EPOCH": 85744, "BSTAR": 0.00073521704, "MEAN_MOTION_DOT": 1.255e-05, "MEAN_MOTION_DDOT": 0}, "tle": {"line1": "1 33823U 93036BQ  25356.34751458  .00001255  00000+0  73522-3 0  9992", "line2": "2 33823  73.8097 132.4917 0209434 256.1122 122.0936 13.98973529857440"}}, "geometry": {"type": "Point", "coordinates": [126.40383872232871, -16.615504947164403]}}]}